NORAD_CAT_ID,OBJECT_NAME,OBJECT_TYPE,EPOCH,MEAN_MOTION,ECCENTRICITY,INCLINATION,RA_OF_ASC_NODE,ARG_OF_PERICENTER,MEAN_ANOMALY,BSTAR,MEAN_MOTION_DOT,MEAN_MOTION_DDOT,TLE_LINE0,TLE_LINE1,TLE_LINE2,SEMIMAJOR_AXIS,PERIOD,APOGEE,PERIGEE,DECAYED
53639.0,STARLINK-4422,PAYLOAD,2024-01-11 19:11:23,15.08846316,0.0001648,53.2171,160.8839,81.4727,278.6452,9.7187e-05,1.259e-05,0.0,0 STARLINK-4422,1 53639U 22104BD  24011.79958194  .00001259  00000-0  97187-4 0  9998,2 53639  53.2171 160.8839 0001648  81.4727 278.6452 15.08846316 77112,6917.861,95.437,540.866,538.586,0.0
53639.0,STARLINK-4422,PAYLOAD,2024-01-12 09:29:52,15.0883829,0.0001239,53.2175,158.2076,91.3081,268.8053,-3.0242e-05,-7.69e-06,0.0,0 STARLINK-4422,1 53639U 22104BD  24012.39575119 -.00000769  00000-0 -30242-4 0  9993,2 53639  53.2175 158.2076 0001239  91.3081 268.8053 15.08838290 76354,6917.886,95.438,540.608,538.893,0.0
53639.0,STARLINK-4422,PAYLOAD,2024-01-12 14:16:02,15.08841821,0.0001674,53.2176,157.3153,101.9297,258.1883,2.5638e-06,-2.47e-06,0.0,0 STARLINK-4422,1 53639U 22104BD  24012.59446770 -.00000247  00000-0  25638-5 0  9999,2 53639  53.2176 157.3153 0001674 101.9297 258.1883 15.08841821 77236,6917.875,95.437,540.898,538.582,0.0
53639.0,STARLINK-4422,PAYLOAD,2024-01-12 15:51:25,15.08842036,0.0001571,53.2174,157.018,105.9393,254.1772,-5.3203e-07,-2.96e-06,0.0,0 STARLINK-4422,1 53639U 22104BD  24012.66070723 -.00000296  00000-0 -53203-6 0  9993,2 53639  53.2174 157.0180 0001571 105.9393 254.1772 15.08842036 77241,6917.874,95.437,540.826,538.652,0.0
53639.0,STARLINK-4422,PAYLOAD,2024-01-13 14:06:49,15.08844207,0.0001641,53.2179,152.8553,94.2754,265.8425,4.1615e-05,3.74e-06,0.0,0 STARLINK-4422,1 53639U 22104BD  24013.58806727  .00000374  00000-0  41615-4 0  9993,2 53639  53.2179 152.8553 0001641  94.2754 265.8425 15.08844207 77383,6917.868,95.437,540.868,538.597,0.0
53639.0,STARLINK-4422,PAYLOAD,2024-01-13 15:42:12,15.08844193,0.0001565,53.2179,152.5592,87.2696,272.8475,6.1619e-05,6.93e-06,0.0,0 STARLINK-4422,1 53639U 22104BD  24013.65430696  .00000693  00000-0  61619-4 0  9999,2 53639  53.2179 152.5592 0001565  87.2696 272.8475 15.08844193 76549,6917.868,95.437,540.815,538.65,0.0
53639.0,STARLINK-4422,PAYLOAD,2024-01-14 13:57:36,15.08841671,0.0001715,53.2184,148.3962,101.222,258.8965,9.6117e-05,1.242e-05,0.0,0 STARLINK-4422,1 53639U 22104BD  24014.58166791  .00001242  00000-0  96117-4 0  9996,2 53639  53.2184 148.3962 0001715 101.2220 258.8965 15.08841671 77532,6917.875,95.437,540.927,538.554,0.0
53639.0,STARLINK-4422,PAYLOAD,2024-01-14 15:32:59,15.0884228,0.0001685,53.2183,148.0988,98.7428,261.3755,9.8284e-05,1.277e-05,0.0,0 STARLINK-4422,1 53639U 22104BD  24014.64790757  .00001277  00000-0  98284-4 0  9993,2 53639  53.2183 148.0988 0001685  98.7428 261.3755 15.08842280 77546,6917.873,95.437,540.904,538.573,0.0
53639.0,STARLINK-4422,PAYLOAD,2024-01-15 12:13:00,15.08842911,0.0001591,53.2185,144.2346,100.7154,259.4018,3.9688e-05,3.44e-06,0.0,0 STARLINK-4422,1 53639U 22104BD  24015.50902903  .00000344  00000-0  39688-4 0  9994,2 53639  53.2185 144.2346 0001591 100.7154 259.4018 15.08842911 76821,6917.871,95.437,540.837,538.636,0.0
53639.0,STARLINK-4422,PAYLOAD,2024-01-15 13:48:23,15.0884365,0.0001558,53.2182,143.937,95.209,264.908,3.8184e-05,3.2e-06,0.0,0 STARLINK-4422,1 53639U 22104BD  24015.57526851  .00000320  00000-0  38184-4 0  9999,2 53639  53.2182 143.9370 0001558  95.2090 264.9080 15.08843650 77687,6917.869,95.437,540.812,538.656,0.0
53639.0,STARLINK-4422,PAYLOAD,2024-01-15 15:23:46,15.08846784,0.0001659,53.219,143.6406,102.2273,257.8905,4.9042e-05,4.93e-06,0.0,0 STARLINK-4422,1 53639U 22104BD  24015.64150594  .00000493  00000-0  49042-4 0  9990,2 53639  53.2190 143.6406 0001659 102.2273 257.8905 15.08846784 77696,6917.86,95.437,540.872,538.577,0.0
53639.0,STARLINK-4422,PAYLOAD,2024-01-16 12:03:47,15.08834435,0.000164,53.2185,139.7726,101.7218,258.3958,-6.4366e-06,-3.9e-06,0.0,0 STARLINK-4422,1 53639U 22104BD  24016.50263688 -.00000390  00000-0 -64366-5 0  9990,2 53639  53.2185 139.7726 0001640 101.7218 258.3958 15.08834435 76978,6917.897,95.438,540.897,538.628,0.0
53639.0,STARLINK-4422,PAYLOAD,2024-01-16 13:39:10,15.08834284,0.0001704,53.2191,139.4767,104.2763,255.8418,-3.7326e-06,-3.47e-06,0.0,0 STARLINK-4422,1 53639U 22104BD  24016.56887703 -.00000347  00000-0 -37326-5 0  9994,2 53639  53.2191 139.4767 0001704 104.2763 255.8418 15.08834284 77832,6917.898,95.438,540.942,538.584,0.0
53639.0,STARLINK-4422,PAYLOAD,2024-01-16 16:49:57,15.08836413,0.0001466,53.2177,138.8759,93.0133,267.1027,-2.6748e-05,-7.14e-06,0.0,0 STARLINK-4422,1 53639U 22104BD  24016.70135607 -.00000714  00000-0 -26748-4 0  9992,2 53639  53.2177 138.8759 0001466  93.0133 267.1027 15.08836413 77851,6917.891,95.438,540.771,538.742,0.0
53639.0,STARLINK-4422,PAYLOAD,2024-01-17 15:05:21,15.08839037,0.0001946,53.2189,134.7193,58.1536,301.9646,-6.1537e-06,-3.86e-06,0.0,0 STARLINK-4422,1 53639U 22104BD  24017.62872104 -.00000386  00000-0 -61537-5 0  9995,2 53639  53.2189 134.7193 0001946  58.1536 301.9646 15.08839037 77997,6917.883,95.438,541.095,538.402,0.0
53639.0,STARLINK-4422,PAYLOAD,2024-01-18 13:20:45,15.08837995,0.0002029,53.2188,130.5556,58.1483,301.9706,0.00014451,2.012e-05,0.0,0 STARLINK-4422,1 53639U 22104BD  24018.55608159  .00002012  00000-0  14451-3 0  9992,2 53639  53.2188 130.5556 0002029  58.1483 301.9706 15.08837995 78132,6917.887,95.438,541.155,538.348,0.0
53639.0,STARLINK-4422,PAYLOAD,2024-01-18 14:56:08,15.08840251,0.0002248,53.2193,130.258,49.8885,310.2304,0.00018606,2.674e-05,0.0,0 STARLINK-4422,1 53639U 22104BD  24018.62232012  .00002674  00000-0  18606-3 0  9991,2 53639  53.2193 130.2580 0002248  49.8885 310.2304 15.08840251 78145,6917.88,95.438,541.3,538.189,0.0
53639.0,STARLINK-4422,PAYLOAD,2024-01-19 11:36:11,15.08819293,0.000166,53.2185,126.3904,62.1257,297.9903,-0.00010657,-1.983e-05,0.0,0 STARLINK-4422,1 53639U 22104BD  24019.48346915 -.00001983  00000-0 -10657-3 0  9996,2 53639  53.2185 126.3904 0001660  62.1257 297.9903 15.08819293 77428,6917.944,95.439,540.957,538.66,0.0
53639.0,STARLINK-4422,PAYLOAD,2024-01-19 14:46:58,15.08820229,0.0001789,53.2184,125.796,63.2473,296.8702,-0.00010225,-1.914e-05,0.0,0 STARLINK-4422,1 53639U 22104BD  24019.61595005 -.00001914  00000-0 -10225-3 0  9992,2 53639  53.2184 125.7960 0001789  63.2473 296.8702 15.08820229 78298,6917.941,95.439,541.043,538.568,0.0
53639.0,STARLINK-4422,PAYLOAD,2024-01-19 16:22:21,15.08822675,0.0001623,53.2184,125.498,69.8433,290.2733,-9.187e-05,-1.749e-05,0.0,0 STARLINK-4422,1 53639U 22104BD  24019.68218822 -.00001749  00000-0 -91870-4 0  9990,2 53639  53.2184 125.4980 0001623  69.8433 290.2733 15.08822675 78303,6917.933,95.439,540.921,538.676,0.0
53639.0,STARLINK-4422,PAYLOAD,2024-01-20 11:26:56,15.08851707,0.0001851,53.2181,121.9408,56.7185,303.3984,7.923e-05,9.73e-06,0.0,0 STARLINK-4422,1 53639U 22104BD  24020.47704707  .00000973  00000-0  79230-4 0  9993,2 53639  53.2181 121.9408 0001851  56.7185 303.3984 15.08851707 77578,6917.845,95.437,540.99,538.429,0.0
53639.0,STARLINK-4422,PAYLOAD,2024-01-20 13:02:19,15.08855087,0.0001983,53.2181,121.6408,70.3709,289.7497,0.00010978,1.46e-05,0.0,0 STARLINK-4422,1 53639U 22104BD  24020.54328335  .00001460  00000-0  10978-3 0  9995,2 53639  53.2181 121.6408 0001983  70.3709 289.7497 15.08855087 78432,6917.834,95.437,541.071,538.327,0.0
53639.0,STARLINK-4422,PAYLOAD,2024-01-20 16:13:04,15.08870006,0.0001616,53.2188,121.0357,84.8834,275.2343,0.00022809,3.347e-05,0.0,0 STARLINK-4422,1 53639U 22104BD  24020.67574790  .00003347  00000-0  22809-3 0  9999,2 53639  53.2188 121.0357 0001616  84.8834 275.2343 15.08870006 77604,6917.789,95.436,540.772,538.536,0.0
53639.0,STARLINK-4422,PAYLOAD,2024-01-21 12:53:06,15.08846597,0.0001509,53.2179,117.1706,96.9026,263.2138,0.0002764,4.114e-05,0.0,0 STARLINK-4422,1 53639U 22104BD  24021.53688080  .00004114  00000-0  27640-3 0  9994,2 53639  53.2179 117.1706 0001509  96.9026 263.2138 15.08846597 77737,6917.86,95.437,540.769,538.681,0.0
53639.0,STARLINK-4422,PAYLOAD,2024-01-21 16:03:52,15.08850222,0.0001479,53.2175,116.5745,102.5909,257.5249,0.00029222,4.367e-05,0.0,0 STARLINK-4422,1 53639U 22104BD  24021.66935691  .00004367  00000-0  29222-3 0  9999,2 53639  53.2175 116.5745 0001479 102.5909 257.5249 15.08850222 78605,6917.849,95.437,540.737,538.691,0.0
53639.0,STARLINK-4422,PAYLOAD,2024-01-22 11:08:30,15.08856196,0.0001842,53.2176,113.0039,119.1466,240.9711,-0.00015828,-2.807e-05,0.0,0 STARLINK-4422,1 53639U 22104BD  24022.46423921 -.00002807  00000-0 -15828-3 0  9992,2 53639  53.2176 113.0039 0001842 119.1466 240.9711 15.08856196 77874,6917.831,95.437,540.97,538.422,0.0
53639.0,STARLINK-4422,PAYLOAD,2024-01-23 10:59:17,15.08850507,0.0001715,53.2177,108.54,105.3443,254.7739,-8.3902e-05,-1.624e-05,0.0,0 STARLINK-4422,1 53639U 22104BD  24023.45783696 -.00001624  00000-0 -83902-4 0  9995,2 53639  53.2177 108.5400 0001715 105.3443 254.7739 15.08850507 78028,6917.848,95.437,540.9,538.527,0.0
53639.0,STARLINK-4422,PAYLOAD,2024-01-24 10:50:05,15.08831101,0.00018,53.2182,104.0877,109.5009,250.6177,9.6357e-06,-1.35e-06,0.0,0 STARLINK-4422,1 53639U 22104BD  24024.45145009 -.00000135  00000-0  96357-5 0  9990,2 53639  53.2182 104.0877 0001800 109.5009 250.6177 15.08831101 78178,6917.908,95.438,541.018,538.527,0.0
53639.0,STARLINK-4422,PAYLOAD,2024-01-24 23:33:09,15.08848335,0.0001751,53.2185,101.7182,90.7732,269.346,4.5552e-05,4.37e-06,0.0,0 STARLINK-4422,1 53639U 22104BD  24024.98136148  .00000437  00000-0  45552-4 0  9996,2 53639  53.2185 101.7182 0001751  90.7732 269.3460 15.08848335 78251,6917.855,95.437,540.931,538.509,0.0
53639.0,STARLINK-4422,PAYLOAD,2024-01-25 12:16:14,15.08853022,0.0001347,53.2173,99.3286,93.3564,266.7582,9.1159e-05,1.164e-05,0.0,0 STARLINK-4422,1 53639U 22104BD  24025.51127470  .00001164  00000-0  91159-4 0  9996,2 53639  53.2173  99.3286 0001347  93.3564 266.7582 15.08853022 79186,6917.841,95.437,540.637,538.774,0.0
